ALOS (DAICHI)           
1 28931U 06002A   25351.73419158  .00001110  00000+0  19545-3 0  9994
2 28931  98.1098 303.1864 0001361 113.5739 246.5610 14.69501788 61443
H-2A R/B                
1 28932U 06002B   26001.93296735  .00016826  00000+0  86975-3 0  9995
2 28932  98.2322 143.3389 0054686 108.3215 252.3974 15.15036523 84322
RESURS-DK 1             
1 29228U 06021A   26002.13744122  .00005246  00000+0  30817-3 0  9994
2 29228  69.9346  49.1181 0006990 242.0385 118.0074 15.12300622 77461
CZ-4B R/B               
1 29507U 06046C   26002.09901509  .00008479  00000+0  43673-3 0  9995
2 29507  97.5708  47.1824 0034877 136.4133 223.9865 15.16112704 49957
CZ-2C R/B               
1 31114U 07010B   26001.93854640  .00000276  00000+0  14569-3 0  9998
2 31114  98.3975 118.5730 0059829 127.7632 232.8986 14.20219441970247
COSMO-SKYMED 1          
1 31598U 07023A   26002.19060103  .00006817  00000+0  61363-3 0  9991
2 31598  97.8826 192.7258 0001231  87.8800 272.2561 14.95945400  4965
COSMOS 2428             
1 31792U 07029A   26002.12808494  .00000345  00000+0  21118-3 0  9993
2 31792  70.9378 343.0719 0004849 355.1509   4.9564 14.12900515954697
SL-16 R/B               
1 31793U 07029B   26002.10924190  .00000195  00000+0  12574-3 0  9993
2 31793  70.9774 312.3390 0002051 270.3509 173.3988 14.14824518955954
KORONAS-FOTON           
1 33504U 09003A   26002.00895334  .00016165  00000+0  38186-3 0  9996
2 33504  82.4307 345.0952 0012743  45.8160 314.4131 15.41628748935460
CZ-2C R/B               
1 37731U 11030B   26001.79181010  .00002609  00000+0  33612-3 0  9996
2 37731  97.8434 320.4581 0052035 206.7005 191.9399 14.80973370780194
H-2A R/B                
1 38341U 12025E   26001.99324186  .00004591  00000+0  42196-3 0  9993
2 38341  98.4625 323.7896 0045020 169.0713 191.1494 14.94597263738255
SHIJIAN-16 (SJ-16)      
1 39358U 13057A   26002.18774118  .00003751  00000+0  37087-3 0  9994
2 39358  74.9737 310.9611 0017916 272.6422  87.2715 14.92075360661580
